{"fetched_at":"2026-03-29T16:36:15Z","count":15609,"tles":[{"name":"STARLINK-34199","line1":"1 64924U 25157W   26087.87031190  .00026370  00000+0  89905-3 0  9998","line2":"2 64924  53.1575 256.3441 0000849  93.9336 266.1762 15.30208573 39019","category":"Starlink"}]}