{
  "norad_id": 64924,
  "name": "STARLINK-34199",
  "history": [
    {
      "epoch": "2026-03-28T20:53:14.948160",
      "apogee_km": 475.7713195236083,
      "perigee_km": 474.60762468864414,
      "latitude_deg": 27.381585158485503,
      "longitude_deg": 35.94994239974767,
      "semi_major_axis_km": 6853.326472106126,
      "eccentricity": 8.49e-05,
      "inclination_deg": 53.1575,
      "raan_deg": 256.3441,
      "arg_perigee_deg": 93.9336,
      "mean_anomaly_deg": 266.1762,
      "mean_motion_rev_day": 15.30208573
    }
  ]
}